COMMENT,ORIGINATOR,NORAD_CAT_ID,OBJECT_NAME,OBJECT_TYPE,CLASSIFICATION_TYPE,INTLDES,EPOCH,EPOCH_MICROSECONDS,MEAN_MOTION,ECCENTRICITY,INCLINATION,RA_OF_ASC_NODE,ARG_OF_PERICENTER,MEAN_ANOMALY,EPHEMERIS_TYPE,ELEMENT_SET_NO,REV_AT_EPOCH,BSTAR,MEAN_MOTION_DOT,MEAN_MOTION_DDOT,FILE,TLE_LINE0,TLE_LINE1,TLE_LINE2,OBJECT_ID,OBJECT_NUMBER,SEMIMAJOR_AXIS,PERIOD,APOGEE,PERIGEE,DECAYED
"GENERATED VIA SPACETRACK.ORG API","18 SPCS","55087","SPACEBEE-167","PAYLOAD","U","23001CG","2024-05-14 21:31:43","986432","15.40925871","0.0008804","97.4227","200.8253","258.3633","101.6626","0","999","7589","0.0017068","0.00070763","0","4317370","0 SPACEBEE-167","1 55087U 23001CG  24135.89703688  .00070763  00000-0  17068-2 0  9992","2 55087  97.4227 200.8253 0008804 258.3633 101.6626 15.40925871 75891","2023-001CG","55087","6821.512","93.450","449.383","437.372","0"
"GENERATED VIA SPACETRACK.ORG API","18 SPCS","55087","SPACEBEE-167","PAYLOAD","U","23001CG","2024-05-15 03:45:46","315584","15.40978438","0.0008864","97.4229","201.0892","257.2932","102.7324","0","999","7593","0.0024005","0.00100109","0","4317764","0 SPACEBEE-167","1 55087U 23001CG  24136.15678606  .00100109  00000-0  24005-2 0  9990","2 55087  97.4229 201.0892 0008864 257.2932 102.7324 15.40978438 75930","2023-001CG","55087","6821.357","93.447","449.269","437.176","0"
"GENERATED VIA SPACETRACK.ORG API","18 SPCS","55087","SPACEBEE-167","PAYLOAD","U","23001CG","2024-05-15 03:45:46","315584","15.40978438","0.0008864","97.4229","201.0892","257.2932","102.7324","0","999","7593","0.0024005","0.00100109","0","4318101","0 SPACEBEE-167","1 55087U 23001CG  24136.15678606  .00100109  00000-0  24005-2 0  9990","2 55087  97.4229 201.0892 0008864 257.2932 102.7324 15.40978438 75930","2023-001CG","55087","6821.357","93.447","449.269","437.176","0"
"GENERATED VIA SPACETRACK.ORG API","18 SPCS","55087","SPACEBEE-167","PAYLOAD","U","23001CG","2024-05-15 17:47:19","683456","15.41050536","0.0008937","97.4229","201.6833","255.8232","104.2021","0","999","7602","0.0018228","0.00075943","0","4318411","0 SPACEBEE-167","1 55087U 23001CG  24136.74120004  .00075943  00000-0  18228-2 0  9996","2 55087  97.4229 201.6833 0008937 255.8232 104.2021 15.41050536 76022","2023-001CG","55087","6821.145","93.443","449.106","436.914","0"
"GENERATED VIA SPACETRACK.ORG API","18 SPCS","55087","SPACEBEE-167","PAYLOAD","U","23001CG","2024-05-15 17:47:19","683456","15.41050536","0.0008937","97.4229","201.6833","255.8232","104.2021","0","999","7602","0.0018228","0.00075943","0","4318417","0 SPACEBEE-167","1 55087U 23001CG  24136.74120004  .00075943  00000-0  18228-2 0  9996","2 55087  97.4229 201.6833 0008937 255.8232 104.2021 15.41050536 76022","2023-001CG","55087","6821.145","93.443","449.106","436.914","0"
"GENERATED VIA SPACETRACK.ORG API","18 SPCS","55087","SPACEBEE-167","PAYLOAD","U","23001CG","2024-05-16 03:08:20","214528","15.41118958","0.0009011","97.4228","202.0787","254.2013","105.824","0","999","7608","0.002014","0.00084199","0","4319073","0 SPACEBEE-167","1 55087U 23001CG  24137.13078952  .00084199  00000-0  20140-2 0  9993","2 55087  97.4228 202.0787 0009011 254.2013 105.8240 15.41118958 76087","2023-001CG","55087","6820.943","93.439","448.954","436.661","0"
"GENERATED VIA SPACETRACK.ORG API","18 SPCS","55087","SPACEBEE-167","PAYLOAD","U","23001CG","2024-05-16 03:08:20","214528","15.41118958","0.0009011","97.4228","202.0787","254.2013","105.824","0","999","7608","0.002014","0.00084199","0","4319123","0 SPACEBEE-167","1 55087U 23001CG  24137.13078952  .00084199  00000-0  20140-2 0  9993","2 55087  97.4228 202.0787 0009011 254.2013 105.8240 15.41118958 76087","2023-001CG","55087","6820.943","93.439","448.954","436.661","0"
"GENERATED VIA SPACETRACK.ORG API","18 SPCS","55087","SPACEBEE-167","PAYLOAD","U","23001CG","2024-05-16 21:50:16","675008","15.41263738","0.0009104","97.4231","202.8706","251.4374","108.5884","0","999","7620","0.0019501","0.00081894","0","4319396","0 SPACEBEE-167","1 55087U 23001CG  24137.90991522  .00081894  00000-0  19501-2 0  9993","2 55087  97.4231 202.8706 0009104 251.4374 108.5884 15.41263738 76207","2023-001CG","55087","6820.516","93.430","448.590","436.171","0"
"GENERATED VIA SPACETRACK.ORG API","18 SPCS","55087","SPACEBEE-167","PAYLOAD","U","23001CG","2024-05-17 04:04:14","53440","15.41310422","0.000912","97.423","203.1346","250.2708","109.7555","0","999","7624","0.0016008","0.00067188","0","4319622","0 SPACEBEE-167","1 55087U 23001CG  24138.16960710  .00067188  00000-0  16008-2 0  9996","2 55087  97.4230 203.1346 0009120 250.2708 109.7555 15.41310422 76241","2023-001CG","55087","6820.378","93.427","448.463","436.023","0"
"GENERATED VIA SPACETRACK.ORG API","18 SPCS","55087","SPACEBEE-167","PAYLOAD","U","23001CG","2024-05-17 04:04:14","53440","15.41310422","0.000912","97.423","203.1346","250.2708","109.7555","0","999","7624","0.0016008","0.00067188","0","4320024","0 SPACEBEE-167","1 55087U 23001CG  24138.16960710  .00067188  00000-0  16008-2 0  9996","2 55087  97.4230 203.1346 0009120 250.2708 109.7555 15.41310422 76241","2023-001CG","55087","6820.378","93.427","448.463","436.023","0"
"GENERATED VIA SPACETRACK.ORG API","18 SPCS","55087","SPACEBEE-167","PAYLOAD","U","23001CG","2024-05-18 17:27:42","961248","15.41624872","0.0009365","97.4236","204.7191","245.4872","114.5398","0","999","7648","0.0020446","0.00086964","0","4321425","0 SPACEBEE-167","1 55087U 23001CG  24139.72758057  .00086964  00000-0  20446-2 0  9992","2 55087  97.4236 204.7191 0009365 245.4872 114.5398 15.41624872 76483","2023-001CG","55087","6819.450","93.408","447.702","434.929","0"
"GENERATED VIA SPACETRACK.ORG API","18 SPCS","55087","SPACEBEE-167","PAYLOAD","U","23001CG","2024-05-18 17:27:42","961248","15.41624872","0.0009365","97.4236","204.7191","245.4872","114.5398","0","999","7648","0.0020446","0.00086964","0","4321432","0 SPACEBEE-167","1 55087U 23001CG  24139.72758057  .00086964  00000-0  20446-2 0  9992","2 55087  97.4236 204.7191 0009365 245.4872 114.5398 15.41624872 76483","2023-001CG","55087","6819.450","93.408","447.702","434.929","0"
"GENERATED VIA SPACETRACK.ORG API","18 SPCS","55087","SPACEBEE-167","PAYLOAD","U","23001CG","2024-05-19 02:48:30","786336","15.41701768","0.0009394","97.4233","205.1143","243.7774","116.2508","0","999","7654","0.0019396","0.0008266","0","4321746","0 SPACEBEE-167","1 55087U 23001CG  24140.11702299  .00082660  00000-0  19396-2 0  9995","2 55087  97.4233 205.1143 0009394 243.7774 116.2508 15.41701768 76545","2023-001CG","55087","6819.224","93.403","447.495","434.683","0"
"GENERATED VIA SPACETRACK.ORG API","18 SPCS","55087","SPACEBEE-167","PAYLOAD","U","23001CG","2024-05-20 03:43:51","333600","15.41879465","0.0009477","97.4232","206.1705","240.2875","119.7429","0","999","7670","0.0020587","0.00088326","0","4322366","0 SPACEBEE-167","1 55087U 23001CG  24141.15545525  .00088326  00000-0  20587-2 0  9996","2 55087  97.4232 206.1705 0009477 240.2875 119.7429 15.41879465 76703","2023-001CG","55087","6818.700","93.393","447.027","434.103","0"
"GENERATED VIA SPACETRACK.ORG API","18 SPCS","55087","SPACEBEE-167","PAYLOAD","U","23001CG","2024-05-20 03:43:51","333600","15.41879465","0.0009477","97.4232","206.1705","240.2875","119.7429","0","999","7670","0.0020587","0.00088326","0","4322688","0 SPACEBEE-167","1 55087U 23001CG  24141.15545525  .00088326  00000-0  20587-2 0  9996","2 55087  97.4232 206.1705 0009477 240.2875 119.7429 15.41879465 76703","2023-001CG","55087","6818.700","93.393","447.027","434.103","0"
"GENERATED VIA SPACETRACK.ORG API","18 SPCS","55087","SPACEBEE-167","PAYLOAD","U","23001CG","2024-05-20 17:44:54","745728","15.41969141","0.0009516","97.4226","206.7654","238.7548","121.2767","0","999","7679","0.0018365","0.00078925","0","4322975","0 SPACEBEE-167","1 55087U 23001CG  24141.73952252  .00078925  00000-0  18365-2 0  9994","2 55087  97.4226 206.7654 0009516 238.7548 121.2767 15.41969141 76791","2023-001CG","55087","6818.435","93.387","446.789","433.812","0"
"GENERATED VIA SPACETRACK.ORG API","18 SPCS","55087","SPACEBEE-167","PAYLOAD","U","23001CG","2024-05-21 03:05:35","379744","15.42029281","0.0009603","97.4226","207.1614","236.9072","123.1254","0","999","7685","0.0018619","0.00080193","0","4323618","0 SPACEBEE-167","1 55087U 23001CG  24142.12888171  .00080193  00000-0  18619-2 0  9998","2 55087  97.4226 207.1614 0009603 236.9072 123.1254 15.42029281 76853","2023-001CG","55087","6818.258","93.383","446.671","433.575","0"
"GENERATED VIA SPACETRACK.ORG API","18 SPCS","55087","SPACEBEE-167","PAYLOAD","U","23001CG","2024-05-21 17:06:34","6176","15.42111462","0.0009574","97.4225","207.756","235.2984","124.7361","0","999","7694","0.001676","0.00072302","0","4323865","0 SPACEBEE-167","1 55087U 23001CG  24142.71289359  .00072302  00000-0  16760-2 0  9994","2 55087  97.4225 207.7560 0009574 235.2984 124.7361 15.42111462 76948","2023-001CG","55087","6818.016","93.378","446.408","433.353","0"
"GENERATED VIA SPACETRACK.ORG API","18 SPCS","55087","SPACEBEE-167","PAYLOAD","U","23001CG","2024-05-21 17:06:34","6176","15.42111462","0.0009574","97.4225","207.756","235.2984","124.7361","0","999","7694","0.001676","0.00072302","0","4323884","0 SPACEBEE-167","1 55087U 23001CG  24142.71289359  .00072302  00000-0  16760-2 0  9994","2 55087  97.4225 207.7560 0009574 235.2984 124.7361 15.42111462 76948","2023-001CG","55087","6818.016","93.378","446.408","433.353","0"
"GENERATED VIA SPACETRACK.ORG API","18 SPCS","55087","SPACEBEE-167","PAYLOAD","U","23001CG","2024-05-22 04:00:37","540224","15.42185051","0.00097","97.4224","208.218","233.2999","126.7358","0","999","7701","0.0015913","0.00068784","0","4324498","0 SPACEBEE-167","1 55087U 23001CG  24143.16710116  .00068784  00000-0  15913-2 0  9992","2 55087  97.4224 208.2180 0009700 233.2999 126.7358 15.42185051 77018","2023-001CG","55087","6817.799","93.374","446.277","433.051","0"
